INTELSAT 31 (IS-31)     
1 41581C 16035A   23016.00000000 -.00000078  00000-0  00000-0 0   162
2 41581   0.0279 264.4580 0002298 290.1118 185.5523  1.00270588    12
INTELSAT 36 (IS-36)     
1 41747C 16053A   23011.91442130  .00000067  00000-0  00000-0 0   117
2 41747   0.0070  26.4886 0001414 332.5843 149.7578  1.00270645    11
INTELSAT 36 (IS-36)     
1 41747C 16053A   23016.00000000  .00000066  00000-0  00000-0 0   162
2 41747   0.0137   1.7942 0001176  12.5503 169.3266  1.00270905    18
INTELSAT 36 (IS-36) [PM]
1 41747C 16053A   23016.51509259  .00000066  00000-0  00000-0 0   168
2 41747   0.0143   1.5711 0001031  14.2786 353.7600  1.00270839    16
INTELSAT 33E            
1 41748C 16053B   23012.00000000  .00000144  00000-0  00000-0 0   122
2 41748   0.0317 282.8713 0001734   5.8631 242.4901  1.00270307    19
INTELSAT 33E            
1 41748C 16053B   23015.96787037  .00000139  00000-0  00000-0 0   159
2 41748   0.0335 294.9813 0001285 351.5399 237.0338  1.00271499    14
INTELSAT 33E        [PM]
1 41748C 16053B   23017.31467593  .00000139  00000-0  00000-0 0   174
2 41748   0.0446 285.9397 0001210 353.9013   9.8866  1.00271503    18
INTELSAT 32E        [PM]
1 41945C 17007B   23011.01421296 -.00000179  00000-0  00000-0 0   113
2 41945   0.0412 222.7428 0000308 337.7714 231.6661  1.00274135    11
INTELSAT 32E            
1 41945C 17007B   23012.00000000 -.00000179  00000-0  00000-0 0   120
2 41945   0.0084  81.4123 0000103 255.2395  91.3860  1.00269764    14
INTELSAT 32E            
1 41945C 17007B   23015.96787037 -.00000190  00000-0  00000-0 0   156
2 41945   0.0019  42.6579 0000318  85.8475 291.8982  1.00270402    13
INTELSAT 32E        [PM]
1 41945C 17007B   23017.98699074 -.00000179  00000-0  00000-0 0   172
2 41945   0.0067  52.2857 0000521  56.8284 320.1341  1.00274302    12
INTELSAT 35E            
1 42818C 17041A   23012.00000000 -.00000147  00000-0  00000-0 0   123
2 42818   0.0390 224.7602 0001915  70.5874 141.3687  1.00273142    18
INTELSAT 35E            
1 42818C 17041A   23015.96787037 -.00004224  00000-0  00000-0 0   156
2 42818   0.0001  17.7305 0001582 288.8643 122.4824  1.00272327    12
INTELSAT 35E        [PM]
1 42818C 17041A   23017.07968750 -.00000149  00000-0  00000-0 0   177
2 42818   0.0250 291.4585 0001573  19.7227 159.2451  1.00272110    12
INTELSAT 37E            
1 42950C 17059A   23012.00000000 -.00000057  00000-0  00000-0 0   129
2 42950   0.0005  78.5380 0002787 216.4785 158.2015  1.00273293    15
INTELSAT 37E        [PM]
1 42950C 17059A   23015.53888889 -.00000057  00000-0  00000-0 0   152
2 42950   0.0000   6.1509 0002427 290.7223 353.8524  1.00272243    15
INTELSAT 37E            
1 42950C 17059A   23015.96787037 -.00000036  00000-0  00000-0 0   159
2 42950   0.0001  51.8544 0002420 245.8787 147.8487  1.00272442    11
INTELSAT 37E        [PM]
1 42950C 17059A   23018.53472222 -.00000069  00000-0  00000-0 0   181
2 42950   0.0001  10.9571 0002346 287.4418 353.7794  1.00271073    15
AZERSPACE 2 (IS-38)     
1 43632C 18074A   23011.91442130  .00000227  00000-0  00000-0 0   115
2 43632   0.0063  80.3313 0001561 222.5983 182.5047  1.00270883    18
AZERSPACE 2 (IS-38)     
1 43632C 18074A   23016.00000000  .00000227  00000-0  00000-0 0   161
2 43632   0.0015  43.4157 0001159 261.6574 215.1901  1.00269971    12
HORIZONS-3E             
1 43633C 18074B   23011.91442130  .00000053  00000-0  00000-0 0   113
2 43633   0.0381 201.6111 0001336  80.2494 327.4728  1.00269012    10
HORIZONS-3E             
1 43633C 18074B   23016.00000000  .00000057  00000-0  00000-0 0   163
2 43633   0.0227 162.1545 0001019 109.7585  12.2455  1.00269653    14
INTELSAT 39 (IS-39) [PM]
1 44476C 19049B   23010.93114583  .00000120  00000-0  00000-0 0   105
2 44476   0.0254 290.6261 0001181 197.0397  19.6604  1.00272139    13
INTELSAT 39 (IS-39)     
1 44476C 19049B   23011.91442130  .00000099  00000-0  00000-0 0   112
2 44476   0.0001   8.5476 0001204 142.2806 351.4484  1.00270627    13
INTELSAT 39 (IS-39)     
1 44476C 19049B   23016.00000000  .00000126  00000-0  00000-0 0   169
2 44476   0.0065 349.0681 0001654 154.8141  33.2355  1.00271194    16
GALAXY 30 (G-30)        
1 46114C 20056C   23012.00000000 -.00002932  00000-0  00000-0 0   120
2 46114   0.0331 243.8987 0002169  62.0579  40.2688  1.00271369    11
GALAXY 30 (G-30)    [PM]
1 46114C 20056C   23015.56458333  .00000116  00000-0  00000-0 0   154
2 46114   0.0001  29.8965 0001830 278.9054 244.1969  1.00270703    11
GALAXY 30 (G-30)        
1 46114C 20056C   23015.96787037  .00000127  00000-0  00000-0 0   156
2 46114   0.0005  35.0546 0001800 273.6079  29.9156  1.00270690    17
GALAXY 30 (G-30)    [PM]
1 46114C 20056C   23018.29930556 -.00004356  00000-0  00000-0 0   183
2 46114   0.0024   1.0060 0001788 316.5583 142.6195  1.00270609    10
GALAXY 33 (G-33)        
1 54026C 22128A   23012.00000000  .00000169  00000-0  00000-0 0   122
2 54026   0.0068  69.4312 0002135 231.2103  37.5868  1.00271759    11
GALAXY 33 (G-33)        
1 54026C 22128A   23015.96787037  .00000169  00000-0  00000-0 0   155
2 54026   0.0184  70.2186 0001715 234.9107  25.4312  1.00271210    18
GALAXY 33 (G-33)    [PM]
1 54026C 22128A   23016.33136574  .00000170  00000-0  00000-0 0   164
2 54026   0.0089 349.6263 0001735 308.8013 163.3506  1.00273468    14
GALAXY 33 (G-33)    [PM]
1 54026C 22128A   23018.27678241  .00000172  00000-0  00000-0 0   185
2 54026   0.0035  29.1251 0001424 281.0312 133.9091  1.00268975    10
GALAXY 34 (G-34)        
1 54027C 22128B   23012.00000000  .00000142  00000-0  00000-0 0   124
2 54027   0.0003  71.5190 0001949 355.6834 275.0255  1.00269863    15
GALAXY 34 (G-34)        
1 54027C 22128B   23015.96787037  .00000144  00000-0  00000-0 0   159
2 54027   0.0278 286.8341 0002192 143.9950 263.7317  1.00272805    19
GALAXY 34 (G-34)    [PM]
1 54027C 22128B   23016.57291667  .00000102  00000-0  00000-0 0   161
2 54027   0.0210 306.2216 0002297 124.4204 122.3282  1.00272469    12
GALAXY 31 (G-31)    [PM]
1 54243C 22153A   23009.08943287  .00000184  00000-0  00000-0 0    91
2 54243   0.0987 261.4249 0002441  28.4461  74.3790  1.00466634    19
GALAXY 31 (G-31)        
1 54243C 22153A   23011.91442130  .00000175  00000-0  00000-0 0   110
2 54243   0.0932 261.5303 0002228  35.1679   9.3258  1.00467436    18
GALAXY 31 (G-31)        
1 54243C 22153A   23016.00000000  .00000161  00000-0  00000-0 0   161
2 54243   0.0827 263.0012 0001904  38.2730  42.4780  1.00469074    15
GALAXY 32 (G-32)        
1 54244C 22153B   23011.91442130  .00000222  00000-0  00000-0 0   114
2 54244   0.0115  94.9878 0004773 342.9110 213.4080  1.00376058    13
GALAXY 32 (G-32)        
1 54244C 22153B   23016.00000000  .00000212  00000-0  00000-0 0   169
2 54244   0.0677 285.2526 0002527  42.6390   3.0746  1.00695701    11
GALAXY 32 (G-32)    [PM]
1 54244C 22153B   23016.85671296  .00000208  00000-0  00000-0 0   168
2 54244   0.1046 285.6116 0002406  44.6983 311.2132  1.00692771    14
GALAXY 35 (G-35)        
1 54741C 22170A   23011.91442130  .00000213  00000-0  00000-0 0   115
2 54741   0.0008 156.7421 0002423 214.6337 278.9094  1.00272233    14
GALAXY 35 (G-35)        
1 54741C 22170A   23016.00000000  .00000216  00000-0  00000-0 0   164
2 54741   0.0458 234.9578 0002445 141.5301 308.6301  1.00271502    18
GALAXY 35 (G-35)    [PM]
1 54741C 22170A   23017.35902778  .00000223  00000-0  00000-0 0   175
2 54741   0.0648 252.1911 0002509 125.2454  78.2700  1.00272433    18
GALAXY 36 (G-36)        
1 54742C 22170B   23011.91442130  .00000223  00000-0  00000-0 0   117
2 54742   0.0166  97.7750 0001934 178.2424  14.3574  1.00273125    13
GALAXY 36 (G-36)        
1 54742C 22170B   23016.00000000  .00000223  00000-0  00000-0 0   163
2 54742   0.0263  89.6897 0001572 193.0466  42.4800  1.00272861    12
GALAXY 36 (G-36)    [PM]
1 54742C 22170B   23016.86046296 -.00004161  00000-0  00000-0 0   160
2 54742   0.0001  19.5260 0001535 263.9502 352.3578  1.00273269    13
